AL MUNTHER              
1 63240U 25052AG  26068.64540749  .00017933  00000+0  65015-3 0  9992
2 63240  97.4001 323.9152 0008027 130.7043 229.4895 15.28381521 54798
STARLINK-33903          
1 63828U 25092AA  26068.29064626  .00027937  00000+0  10206-2 0  9990
2 63828  43.0062 174.7963 0001760 272.7263  87.3387 15.27590184 48600
